[{"OBJECT_NAME":"STARLINK-35903","OBJECT_ID":"2025-303F","EPOCH":"2026-03-09T09:41:59.733312","MEAN_MOTION":15.27585974,"ECCENTRICITY":6.613e-5,"INCLINATION":43.0024,"RA_OF_ASC_NODE":312.1475,"ARG_OF_PERICENTER":283.1485,"MEAN_ANOMALY":76.9293,"EPHEMERIS_TYPE":0,"CLASSIFICATION_TYPE":"U","NORAD_CAT_ID":67168,"ELEMENT_SET_NO":999,"REV_AT_EPOCH":1269,"BSTAR":0.00090351764,"MEAN_MOTION_DOT":0.00024688,"MEAN_MOTION_DDOT":0},{"OBJECT_NAME":"CZ-6A DEB","OBJECT_ID":"2022-151NB","EPOCH":"2026-03-09T18:26:17.609568","MEAN_MOTION":15.22372787,"ECCENTRICITY":0.00267955,"INCLINATION":98.6489,"RA_OF_ASC_NODE":154.0342,"ARG_OF_PERICENTER":180.4296,"MEAN_ANOMALY":179.6918,"EPHEMERIS_TYPE":0,"CLASSIFICATION_TYPE":"U","NORAD_CAT_ID":54601,"ELEMENT_SET_NO":999,"REV_AT_EPOCH":17694,"BSTAR":0.011449911,"MEAN_MOTION_DOT":0.00276508,"MEAN_MOTION_DDOT":0}]
